ONEWEB-0534             
1 55797U 23029B   26156.03281276  .00000120  00000+0  26426-3 0  9993
2 55797  87.9179 276.8933 0001832  99.2566 260.8775 13.20770891159542
ONEWEB-0556             
1 55798U 23029C   26156.26683225  .00000186  00000+0  42494-3 0  9994
2 55798  87.9177 276.8463 0002064  74.6320 285.5041 13.20774036159570
ONEWEB-0562             
1 55799U 23029D   26156.02607013  .00000001  00000+0 -29586-4 0  9995
2 55799  87.9178 276.8741 0002636  83.3760 276.7674 13.20773508159545
ONEWEB-0563             
1 55800U 23029E   26156.09679460  .00000011  00000+0 -44974-5 0  9990
2 55800  87.9194 276.8897 0001633 108.7422 251.3888 13.20771705159544
ONEWEB-0564             
1 55801U 23029F   26156.09005352  .00000009  00000+0 -10231-4 0  9999
2 55801  87.9193 276.8638 0002217 103.6020 256.5361 13.20772734159551
ONEWEB-0638             
1 55802U 23029G   26154.46351618  .00000132  00000+0  32090-3 0  9990
2 55802  87.8945 292.4893 0002107  82.9123 277.2246 13.14502063157597
ONEWEB-0639             
1 55803U 23029H   26156.12867812  .00000200  00000+0  46625-3 0  9999
2 55803  87.9160 307.3788 0000821 100.4099 259.7127 13.19727888157318
ONEWEB-0640             
1 55804U 23029J   26156.07150393  .00000126  00000+0  30537-3 0  9995
2 55804  87.8947 292.1591 0001745  75.9423 284.1901 13.14501803157827
ONEWEB-0641             
1 55805U 23029K   26156.12392795  .00000068  00000+0  13826-3 0  9993
2 55805  87.9165 307.3681 0001659  97.2090 262.9231 13.19727447157325
ONEWEB-0642             
1 55806U 23029L   26156.11919531  .00000088  00000+0  18721-3 0  9997
2 55806  87.9160 307.3820 0001084 111.4822 248.6426 13.19726969157314
ONEWEB-0643             
1 55807U 23029M   26156.11749846  .00000080  00000+0  18046-3 0  9990
2 55807  87.8946 292.1373 0001505 118.2420 241.8862 13.14502822157805
ONEWEB-0644             
1 55808U 23029N   26156.11444790 -.00000018  00000+0 -77832-4 0  9993
2 55808  87.9147 307.3868 0001620 114.7781 245.3521 13.19723428157316
ONEWEB-0645             
1 55809U 23029P   26155.98492674  .00000058  00000+0  11300-3 0  9991
2 55809  87.9158 307.4074 0001410  85.2028 274.9265 13.19727248157296
ONEWEB-0646             
1 55810U 23029Q   26153.80363471 -.00000057  00000+0 -17583-3 0  9994
2 55810  87.9154 307.8422 0001688 106.1464 253.9854 13.19725132156996
ONEWEB-0648             
1 55811U 23029R   26156.08576436 -.00000112  00000+0 -33667-3 0  9998
2 55811  87.8956 292.1155 0000967  87.5978 272.5262 13.14504257157805
ONEWEB-0649             
1 55812U 23029S   26156.17921253  .00000012  00000+0 -12459-5 0  9996
2 55812  87.9160 307.3666 0001557  92.8937 267.2374 13.19727145157342
ONEWEB-0650             
1 55813U 23029T   26156.17445745  .00001525  00000+0  37761-2 0  9993
2 55813  87.9158 307.3699 0001395 101.7375 258.3914 13.19740921157317
ONEWEB-0652             
1 55814U 23029U   26156.06674441  .00000168  00000+0  41767-3 0  9993
2 55814  87.8952 292.1276 0002028  97.7471 262.3889 13.14503519157777
ONEWEB-0653             
1 55815U 23029V   26156.27923737  .00000355  00000+0  92223-3 0  9993
2 55815  87.8954 292.0826 0001932  97.4486 262.6864 13.14504028157835
ONEWEB-0654             
1 55816U 23029W   26156.12225089  .00000086  00000+0  19672-3 0  9991
2 55816  87.8953 292.1104 0002239  95.4138 264.7247 13.14502958157836
ONEWEB-0656             
1 55817U 23029X   26156.31060116  .00000108  00000+0  23271-3 0  9996
2 55817  87.9192 276.7965 0002312  97.4128 262.7268 13.20772289159587
ONEWEB-0657             
1 55818U 23029Y   26153.81942509 -.00000026  00000+0 -96908-4 0  9993
2 55818  87.9159 307.8384 0002332 110.6459 249.4924 13.19726362157015
ONEWEB-0658             
1 55819U 23029Z   26154.49703356 -.00000001  00000+0 -35805-4 0  9996
2 55819  87.9168 307.6776 0001418 100.8472 259.2820 13.19726967157115
ONEWEB-0660             
1 55820U 23029AA  26156.10004458 -.00000128  00000+0 -37847-3 0  9992
2 55820  87.8962 292.1063 0001661  90.2586 269.8734 13.14503068157811
ONEWEB-0661             
1 55821U 23029AB  26154.46034609  .00000218  00000+0  55433-3 0  9990
2 55821  87.8943 292.4801 0001540  87.3980 272.7326 13.14501994157585
ONEWEB-0662             
1 55822U 23029AC  26156.09370082 -.00000204  00000+0 -58513-3 0  9999
2 55822  87.8944 292.1610 0001657  90.1234 270.0086 13.14501540157845
ONEWEB-0663             
1 55823U 23029AD  26156.26941168  .00000151  00000+0  33893-3 0  9991
2 55823  87.9193 276.8760 0001441  93.2036 266.9263 13.20868860159574
ONEWEB-0664             
1 55824U 23029AE  26156.06984294  .00000072  00000+0  14517-3 0  9991
2 55824  87.9177 276.8984 0002056  86.6023 273.5345 13.20771554159545
ONEWEB-0665             
1 55825U 23029AF  26156.13177068  .00000209  00000+0  52937-3 0  9993
2 55825  87.8946 292.1282 0001625  93.7009 266.4306 13.14502098157820
ONEWEB-0666             
1 55826U 23029AG  26156.06311601  .00000027  00000+0  34762-4 0  9994
2 55826  87.9177 276.8895 0002498 112.6427 247.4971 13.20769399159556
